{ "type": "FeatureCollection", "features": [{"type":"Feature","geometry":{"type":"Point","coordinates":[-65.519237,44.743133]},"properties":{"postal":"B0S 1A0","location_state":"","prov":"NS","city":"Annapolis Royal","location_zip":"","name":"Annapolis Royal Library",":version":"rv-7ahu_b6wu.ye2y",":created_at":"2023-05-05T11:58:53.059Z","location_address":"","location_city":"","region_id":"AVRL","address2":"PO Box 579","building":null,"address1":"143 Ritchie St.","link":{"url":"http://web.archive.org/web/20240919224635/http://www.valleylibrary.ca/branch/annapolis-royal-library"},":updated_at":"2023-05-05T11:58:53.059Z","ext":null,":id":"row-vm69-pqig-wzfr","loc_id":"AVRL-BR01","type":"Branch","phone":"902-532-2226"}},{"type":"Feature","geometry":{"type":"Point","coordinates":[-65.158287,44.882353]},"properties":{"postal":"B0S 1M0","location_state":"","prov":"NS","city":"Lawrencetown","location_zip":"","name":"Dr. Frank W. Morse Memorial Library",":version":"rv-ne7s.svi9_dddh",":created_at":"2023-05-05T11:58:53.059Z","location_address":"","location_city":"","region_id":"AVRL","address2":"PO Box 88","building":null,"address1":"489 Main Street","link":{"url":"http://web.archive.org/web/20240919224635/http://www.valleylibrary.ca/branch/lawrencetown-dr-frank-w-morse-memorial-library"},":updated_at":"2023-05-05T11:58:53.059Z","ext":null,":id":"row-jucf.5yy6_q4nk","loc_id":"AVRL-BR02","type":"Branch","phone":"902-584-3044"}},{"type":"Feature","geometry":{"type":"Point","coordinates":[-65.073105,44.943973]},"properties":{"postal":"B0S 1P0","location_state":"","prov":"NS","city":"Middleton","location_zip":"","name":"Rosa M. Harvey Middleton & Area Library",":version":"rv-wewa-abxs.6f5h",":created_at":"2023-05-05T11:58:53.059Z","location_address":"","location_city":"","region_id":"AVRL","address2":"PO Box 667","building":null,"address1":"45 Gates Avenue","link":{"url":"http://web.archive.org/web/20240919224635/http://www.valleylibrary.ca/branch/middleton-rosa-m-harvey-middleton-area-library"},":updated_at":"2023-05-05T11:58:53.059Z","ext":null,":id":"row-rha5-7ykr~qzpg","loc_id":"AVRL-BR03","type":"Branch","phone":"902-825-4835"}},{"type":"Feature","geometry":{"type":"Point","coordinates":[-64.7381571,45.0467372]},"properties":{"postal":"B0P 1E0","location_state":"","prov":"NS","city":"Berwick","location_zip":"","name":"Berwick Library",":version":"rv-cp4f-j3v3-v7e6",":created_at":"2023-05-05T11:58:53.059Z","location_address":"","location_city":"","region_id":"AVRL","address2":"PO Box 510","building":null,"address1":"236 Commercial Street","link":{"url":"http://web.archive.org/web/20240919224635/http://www.valleylibrary.ca/branch/berwick-and-district-library"},":updated_at":"2023-05-05T11:58:53.059Z","ext":null,":id":"row-jvhn.purb_aagm","loc_id":"AVRL-BR04","type":"Branch","phone":"902-538-8060"}},{"type":"Feature","geometry":{"type":"Point","coordinates":[-64.180117,45.065458]},"properties":{"postal":"B0P 1P0","location_state":"","prov":"NS","city":"Hantsport","location_zip":"","name":"Hantsport Public Library",":version":"rv-8up4-x6ku~b9da",":created_at":"2023-05-05T11:58:53.059Z","location_address":"","location_city":"","region_id":"AVRL","address2":"PO Box 467","building":null,"address1":"10 Main Street","link":{"url":"http://web.archive.org/web/20240919224635/http://www.valleylibrary.ca/branch/hantsport-isabel-and-roy-jodrey-memorial-library"},":updated_at":"2023-05-05T11:58:53.059Z","ext":null,":id":"row-un6w-5jvu-qmcz","loc_id":"AVRL-BR05","type":"Branch","phone":"902-684-0103"}},{"type":"Feature","geometry":{"type":"Point","coordinates":[-64.363981,45.092561]},"properties":{"postal":"B4P 2A1","location_state":"","prov":"NS","city":"Wolfville","location_zip":"","name":"Wolfville Memorial Library",":version":"rv-tssm_8njt-bj8m",":created_at":"2023-05-05T11:58:53.059Z","location_address":"","location_city":"","region_id":"AVRL","address2":null,"building":"Railway Station","address1":"21 Elm Avenue","link":{"url":"http://web.archive.org/web/20240919224635/http://www.valleylibrary.ca/branch/wolfville-memorial-library"},":updated_at":"2023-05-05T11:58:53.059Z","ext":null,":id":"row-epqu_ujez-hvdg","loc_id":"AVRL-BR07","type":"Branch","phone":"902-542-5760"}},{"type":"Feature","geometry":{"type":"Point","coordinates":[-64.497426,45.077318]},"properties":{"postal":"B4N 1K8","location_state":"","prov":"NS","city":"Kentville","location_zip":"","name":"Kentville Library",":version":"rv-6qrm~xei4~hurb",":created_at":"2023-05-05T11:58:53.059Z","location_address":"","location_city":"","region_id":"AVRL","address2":null,"building":null,"address1":"440 Main Street","link":{"url":"http://web.archive.org/web/20240919224635/http://www.valleylibrary.ca/branch/kentville-library"},":updated_at":"2023-05-05T11:58:53.059Z","ext":null,":id":"row-i3hd_uy3a_piyq","loc_id":"AVRL-BR08","type":"Branch","phone":"902-679-2544"}},{"type":"Feature","geometry":{"type":"Point","coordinates":[-64.946761,44.98832]},"properties":{"postal":"B0P 1R0","location_state":"","prov":"NS","city":"Kingston","location_zip":"","name":"Kingston Library",":version":"rv-7cma~guzz~tkew",":created_at":"2023-05-05T11:58:53.059Z","location_address":"","location_city":"","region_id":"AVRL","address2":"PO Box 430","building":null,"address1":"671 Main Street","link":{"url":"http://web.archive.org/web/20240919224635/http://www.valleylibrary.ca/branch/kingston-library"},":updated_at":"2023-05-05T11:58:53.059Z","ext":null,":id":"row-qeje~qi7j_dsta","loc_id":"AVRL-BR09","type":"Branch","phone":"902-765-3631"}},{"type":"Feature","geometry":{"type":"Point","coordinates":[-65.291277,44.839948]},"properties":{"postal":"B0S 1C0","location_state":"","prov":"NS","city":"Bridgetown","location_zip":"","name":"Bridgetown & Area Library",":version":"rv-tn4u~us2s~zpai",":created_at":"2023-05-05T11:58:53.059Z","location_address":"","location_city":"","region_id":"AVRL","address2":"PO Box 39","building":"Revere Building","address1":"38 Queen Street","link":{"url":"http://web.archive.org/web/20240919224635/http://www.valleylibrary.ca/branch/bridgetown-area-library"},":updated_at":"2023-05-05T11:58:53.059Z","ext":null,":id":"row-q2ke_4yp7-tm3w","loc_id":"AVRL-BR10","type":"Branch","phone":"902-665-2758"}},{"type":"Feature","geometry":{"type":"Point","coordinates":[-64.138169,44.991121]},"properties":{"postal":"B0N 2T0","location_state":"","prov":"NS","city":"Windsor","location_zip":"","name":"Windsor Regional Library",":version":"rv-bakr_zzga.jyx5",":created_at":"2023-05-05T11:58:53.059Z","location_address":"","location_city":"","region_id":"AVRL","address2":"PO Box 106","building":null,"address1":"195 Albert Street","link":{"url":"http://web.archive.org/web/20240919224635/http://www.valleylibrary.ca/branch/windsor-regional-library"},":updated_at":"2023-05-05T11:58:53.059Z","ext":null,":id":"row-pbbk~8a3q_jgf2","loc_id":"AVRL-BR11","type":"Branch","phone":"902-798-5424"}},{"type":"Feature","geometry":{"type":"Point","coordinates":[-64.7381571,45.0467372]},"properties":{"postal":"B0P 1E0","location_state":"","prov":"NS","city":"Berwick","location_zip":"","name":"Annapolis Valley Regional Library (HQ)",":version":"rv-v7xr~6x2d_6tgq",":created_at":"2023-05-05T11:58:53.059Z","location_address":"","location_city":"","region_id":"AVRL","address2":"PO Box 510","building":null,"address1":"236 Commercial Street","link":{"url":"http://web.archive.org/web/20240919224635/http://www.valleylibrary.ca"},":updated_at":"2023-05-05T11:58:53.059Z","ext":null,":id":"row-wram~y693~8f7s","loc_id":"AVRL-HQ01","type":"HQ","phone":"1-866-922-0229"}},{"type":"Feature","geometry":{"type":"Point","coordinates":[-59.960754,46.193877]},"properties":{"postal":"B1A 3B9","location_state":"","prov":"NS","city":"Glace Bay","location_zip":"","name":"Glace Bay Public Library",":version":"rv-am4a-ju9j_jkui",":created_at":"2023-05-05T11:58:53.059Z","location_address":"","location_city":"","region_id":"CBRL","address2":null,"building":null,"address1":"143 Commercial Street","link":{"url":"http://web.archive.org/web/20240919224635/http://cbrl.ca/locations/glacebay/"},":updated_at":"2023-05-05T11:58:53.059Z","ext":null,":id":"row-mf39~ff37_hver","loc_id":"CBRL-BR02","type":"Branch","phone":"902-849-8657"}},{"type":"Feature","geometry":{"type":"Point","coordinates":[-60.022202,46.210961]},"properties":{"postal":"B1G 1B4","location_state":"","prov":"NS","city":"Dominion","location_zip":"","name":"Dominion Public Library",":version":"rv-48h6-mdfs_mks7",":created_at":"2023-05-05T11:58:53.059Z","location_address":"","location_city":"","region_id":"CBRL","address2":null,"building":null,"address1":"78 Commercial Street, Unit A","link":{"url":"http://web.archive.org/web/20240919224635/http://cbrl.ca/locations/dominion/"},":updated_at":"2023-05-05T11:58:53.059Z","ext":null,":id":"row-sd3e_pehg~785w","loc_id":"CBRL-BR03","type":"Branch","phone":"902-849-3590"}},{"type":"Feature","geometry":{"type":"Point","coordinates":[-60.247874,46.210053]},"properties":{"postal":"B2A 1B9","location_state":"","prov":"NS","city":"North Sydney","location_zip":"","name":"Wilfred Oram Centennial Library",":version":"rv-vrwg-n6k8.paua",":created_at":"2023-05-05T11:58:53.059Z","location_address":"","location_city":"","region_id":"CBRL","address2":null,"building":null,"address1":"309 Commercial Street","link":{"url":"http://web.archive.org/web/20240919224635/http://cbrl.ca/locations/north-sydney/"},":updated_at":"2023-05-05T11:58:53.059Z","ext":null,":id":"row-uchh~355e_5uxa","loc_id":"CBRL-BR04","type":"Branch","phone":"902-794-3272"}},{"type":"Feature","geometry":{"type":"Point","coordinates":[-60.086156,46.248876]},"properties":{"postal":"B1H 4K4","location_state":"","prov":"NS","city":"New Waterford","location_zip":"","name":"New Waterford Public Library",":version":"rv-6qud~45xb.7z2m",":created_at":"2023-05-05T11:58:53.059Z","location_address":"","location_city":"","region_id":"CBRL","address2":null,"building":null,"address1":"3390 Plummer Avenue","link":{"url":"http://web.archive.org/web/20240919224635/http://cbrl.ca/locations/newwaterford/"},":updated_at":"2023-05-05T11:58:53.059Z","ext":null,":id":"row-je5p~jctr.kfxx","loc_id":"CBRL-BR05","type":"Branch","phone":"902-862-2892"}},{"type":"Feature","geometry":{"type":"Point","coordinates":[-59.973045,45.920514]},"properties":{"postal":"B1C 1M6","location_state":"","prov":"NS","city":"Louisbourg","location_zip":"","name":"W.W. Lewis Memorial Library",":version":"rv-t5p2_yzpu~sn4e",":created_at":"2023-05-05T11:58:53.059Z","location_address":"","location_city":"","region_id":"CBRL","address2":null,"building":null,"address1":"10 Upper Warren Street","link":{"url":"http://web.archive.org/web/20240919224635/http://cbrl.ca/locations/louisbourg/"},":updated_at":"2023-05-05T11:58:53.059Z","ext":null,":id":"row-jzdb.iwas.bd6b","loc_id":"CBRL-BR06","type":"Branch","phone":"902-733-3608"}},{"type":"Feature","geometry":{"type":"Point","coordinates":[-60.020021,46.180295]},"properties":{"postal":"B1E 1J9","location_state":"","prov":"NS","city":"Reserve Mines","location_zip":"","name":"Tompkins Memorial Library",":version":"rv-ksx3_rvc4-smqn",":created_at":"2023-05-05T11:58:53.059Z","location_address":"","location_city":"","region_id":"CBRL","address2":null,"building":"Tompkins Place","address1":"2249 Sydney Road, Unit 3","link":{"url":"http://web.archive.org/web/20240919224635/http://cbrl.ca/locations/reserve-mines/"},":updated_at":"2023-05-05T11:58:53.059Z","ext":null,":id":"row-fwa3-wkx4-ytb4","loc_id":"CBRL-BR08","type":"Branch","phone":"902-849-6685"}},{"type":"Feature","geometry":{"type":"Point","coordinates":[-60.262355,46.256381]},"properties":{"postal":"B1Y 1E4","location_state":"","prov":"NS","city":"Florence","location_zip":"","name":"Florence Public Library",":version":"rv-rf5h.9hkg.24gj",":created_at":"2023-05-05T11:58:53.059Z","location_address":"","location_city":"","region_id":"CBRL","address2":null,"building":null,"address1":"676 Bras d'Or Florence Road","link":{"url":"http://web.archive.org/web/20240919224635/http://cbrl.ca/locations/florence/"},":updated_at":"2023-05-05T11:58:53.059Z","ext":null,":id":"row-2cim_sr5m-wa7e","loc_id":"CBRL-BR09","type":"Branch","phone":"902-736-7583"}},{"type":"Feature","geometry":{"type":"Point","coordinates":[-60.749112,46.100782]},"properties":{"postal":"B0E 1B0","location_state":"","prov":"NS","city":"Baddeck","location_zip":"","name":"Baddeck Public Library",":version":"rv-zyvv-ee9q-6k2f",":created_at":"2023-05-05T11:58:53.059Z","location_address":"","location_city":"","region_id":"CBRL","address2":null,"building":null,"address1":"520 Chebucto Street","link":{"url":"http://web.archive.org/web/20240919224635/http://cbrl.ca/locations/baddeck/"},":updated_at":"2023-05-05T11:58:53.059Z","ext":null,":id":"row-8bri-cmfm~ja82","loc_id":"CBRL-BR10","type":"Branch","phone":"902-295-2055"}},{"type":"Feature","geometry":{"type":"Point","coordinates":[-59.846282,46.005145]},"properties":{"postal":"B1C 1X5","location_state":"","prov":"NS","city":"Main-a-Dieu","location_zip":"","name":"Main-A-Dieu Library",":version":"rv-ta33~bwsk_w9uz",":created_at":"2023-05-05T11:58:53.059Z","location_address":"","location_city":"","region_id":"CBRL","address2":null,"building":"Coastal Discovery Centre","address1":"2886 Louisbourg-Main-a-Dieu Road, Suite 4","link":{"url":"http://web.archive.org/web/20240919224635/http://cbrl.ca/locations/mainadieu/"},":updated_at":"2023-05-05T11:58:53.059Z","ext":null,":id":"row-e79s.svha_tftr","loc_id":"CBRL-BR11","type":"Branch","phone":"902-733-5708"}},{"type":"Feature","geometry":{"type":"Point","coordinates":[-60.231401,46.242008]},"properties":{"postal":"B1V 2B8","location_state":"","prov":"NS","city":"Sydney Mines","location_zip":"","name":"Martha Hollett Memorial Library",":version":"rv-uaye-ud9e-8q63",":created_at":"2023-05-05T11:58:53.059Z","location_address":"","location_city":"","region_id":"CBRL","address2":null,"building":"Commerce Place","address1":"1 Fraser Avenue","link":{"url":"http://web.archive.org/web/20240919224635/http://cbrl.ca/locations/sydney-mines/"},":updated_at":"2023-05-05T11:58:53.059Z","ext":null,":id":"row-4qij_em5a.zpcy","loc_id":"CBRL-BR12","type":"Branch","phone":"902-736-3219"}},{"type":"Feature","geometry":{"type":"Point","coordinates":[-60.381538,46.690508]},"properties":{"postal":"B0C 1K0","location_state":"","prov":"NS","city":"Ingonish","location_zip":"","name":"Victoria North Regional Library",":version":"rv-qc2k_kyx3.yxf9",":created_at":"2023-05-05T11:58:53.059Z","location_address":"","location_city":"","region_id":"CBRL","address2":null,"building":null,"address1":"36243 Cabot Trail","link":{"url":"http://web.archive.org/web/20240919224635/http://cbrl.ca/locations/ingonish/"},":updated_at":"2023-05-05T11:58:53.059Z","ext":null,":id":"row-u7u6~t6ga-hgg2","loc_id":"CBRL-BR13","type":"Branch","phone":"902-285-2544"}},{"type":"Feature","geometry":{"type":"Point","coordinates":[-60.193443,46.135819]},"properties":{"postal":"B1P 6X9","location_state":"","prov":"NS","city":"Sydney","location_zip":"","name":"Cape Breton Regional Library",":version":"rv-ijtk~ua6x-6h9q",":created_at":"2023-05-05T11:58:53.059Z","location_address":"","location_city":"","region_id":"CBRL","address2":null,"building":null,"address1":"50 Falmouth Street","link":{"url":"http://web.archive.org/web/20240919224635/http://cbrl.ca"},":updated_at":"2023-05-05T11:58:53.059Z","ext":null,":id":"row-a5fa.j9rb.ecua","loc_id":"CBRL-HQ01","type":"HQ","phone":"902-562-3279"}},{"type":"Feature","geometry":{"type":"Point","coordinates":[-63.278445,45.364819]},"properties":{"postal":"B2N 1G9","location_state":"","prov":"NS","city":"Truro","location_zip":"","name":"Truro Library",":version":"rv-yz9p~nsk9_a9tp",":created_at":"2023-05-05T11:58:53.059Z","location_address":"","location_city":"","region_id":"CEHPL","address2":null,"building":null,"address1":"754 Prince Street","link":{"url":"http://web.archive.org/web/20240919224635/http://lovemylibrary.ca/branch/truro/"},":updated_at":"2023-05-05T11:58:53.059Z","ext":null,":id":"row-2czf-zkh7_d64f","loc_id":"CEHPL-BR01","type":"Branch","phone":"902-895-4183"}},{"type":"Feature","geometry":{"type":"Point","coordinates":[-63.295111,45.713272]},"properties":{"postal":"B0K 1V0","location_state":"","prov":"NS","city":"Tatamagouche","location_zip":"","name":"Tatamagouche Library",":version":"rv-9nym_awap_dqnh",":created_at":"2023-05-05T11:58:53.059Z","location_address":"","location_city":"","region_id":"CEHPL","address2":null,"building":null,"address1":"170 Main Street","link":{"url":"http://web.archive.org/web/20240919224635/http://lovemylibrary.ca/branch/tatamagouche/"},":updated_at":"2023-05-05T11:58:53.059Z","ext":null,":id":"row-e4b5_y7fu.qgcj","loc_id":"CEHPL-BR02","type":"Branch","phone":"902-657-3064"}},{"type":"Feature","geometry":{"type":"Point","coordinates":[-63.348433,45.138493]},"properties":{"postal":"B0N 2J0","location_state":"","prov":"NS","city":"Stewiacke","location_zip":"","name":"Stewiacke Library",":version":"rv-gzuq.49qm_da47",":created_at":"2023-05-05T11:58:53.059Z","location_address":"","location_city":"","region_id":"CEHPL","address2":null,"building":null,"address1":"295 George Street","link":{"url":"http://web.archive.org/web/20240919224635/http://lovemylibrary.ca/branch/stewiacke/"},":updated_at":"2023-05-05T11:58:53.059Z","ext":null,":id":"row-q2ha.rmcg_bdy5","loc_id":"CEHPL-BR03","type":"Branch","phone":"902-639-2481"}},{"type":"Feature","geometry":{"type":"Point","coordinates":[-63.510283,44.977824]},"properties":{"postal":"B2S 3K5","location_state":"","prov":"NS","city":"Elmsdale","location_zip":"","name":"Elmsdale Library",":version":"rv-as9z_z7k5-7a3n",":created_at":"2023-05-05T11:58:53.059Z","location_address":"","location_city":"","region_id":"CEHPL","address2":null,"building":"Lloyd E. Matheson Centre","address1":"15 Commerce Court, Suite 100","link":{"url":"http://web.archive.org/web/20240919224635/http://lovemylibrary.ca/branch/elmsdale/"},":updated_at":"2023-05-05T11:58:53.059Z","ext":null,":id":"row-36yg-wnmz_r5ba","loc_id":"CEHPL-BR04","type":"Branch","phone":"902-883-9838"}},{"type":"Feature","geometry":{"type":"Point","coordinates":[-63.824903,44.888172]},"properties":{"postal":"B0N 1Z0","location_state":"","prov":"NS","city":"Mount Uniacke","location_zip":"","name":"Mount Uniacke Library",":version":"rv-iikr_5kqh_2rgu",":created_at":"2023-05-05T11:58:53.059Z","location_address":"","location_city":"","region_id":"CEHPL","address2":null,"building":null,"address1":"555 Highway 1","link":{"url":"http://web.archive.org/web/20240919224635/http://lovemylibrary.ca/branch/mount-uniacke/"},":updated_at":"2023-05-05T11:58:53.059Z","ext":null,":id":"row-dtuh_avmn-f85w","loc_id":"CEHPL-BR05","type":"Branch","phone":"902-866-0124"}},{"type":"Feature","geometry":{"type":"Point","coordinates":[-63.278445,45.364819]},"properties":{"postal":"B2N 1G9","location_state":"","prov":"NS","city":"Truro","location_zip":"","name":"Colchester-East Hants Public Library",":version":"rv-cuuh~cair.h5bt",":created_at":"2023-05-05T11:58:53.059Z","location_address":"","location_city":"","region_id":"CEHPL","address2":null,"building":null,"address1":"754 Prince Street","link":{"url":"http://web.archive.org/web/20240919224635/http://lovemylibrary.ca"},":updated_at":"2023-05-05T11:58:53.059Z","ext":null,":id":"row-pyzc.63vj~y7cq","loc_id":"CEHPL-HQ01","type":"HQ","phone":"902-895-4183"}},{"type":"Feature","geometry":{"type":"Point","coordinates":[-64.20935,45.83468]},"properties":{"postal":"B4H 3L5","location_state":"","prov":"NS","city":"Amherst","location_zip":"","name":"Four Fathers Memorial Library",":version":"rv-mztu.juk6.ukzb",":created_at":"2023-05-05T11:58:53.059Z","location_address":"","location_city":"","region_id":"CPL","address2":null,"building":null,"address1":"21 Acadia Street","link":{"url":"http://web.archive.org/web/20240919224635/http://www.cumberlandpubliclibraries.ca/branches"},":updated_at":"2023-05-05T11:58:53.059Z","ext":null,":id":"row-9eaq~iue6~t7zb","loc_id":"CPL-BR01","type":"Branch","phone":"902-667-2549"}},{"type":"Feature","geometry":{"type":"Point","coordinates":[-63.866727,45.735958]},"properties":{"postal":"B0M 1P0","location_state":"","prov":"NS","city":"Oxford","location_zip":"","name":"Oxford Library",":version":"rv-kpjt-kewz~absa",":created_at":"2023-05-05T11:58:53.059Z","location_address":"","location_city":"","region_id":"CPL","address2":null,"building":"Knights of Pythias Building","address1":"111 Rideau Street","link":{"url":"http://web.archive.org/web/20240919224635/http://www.cumberlandpubliclibraries.ca/branches"},":updated_at":"2023-05-05T11:58:53.059Z","ext":null,":id":"row-qaw9_jn7k-fw2z","loc_id":"CPL-BR02","type":"Branch","phone":"902-447-2440"}},{"type":"Feature","geometry":{"type":"Point","coordinates":[-64.329901,45.404361]},"properties":{"postal":"B0M 1S0","location_state":"","prov":"NS","city":"Parrsboro","location_zip":"","name":"Parrsboro Library",":version":"rv-ez85.e8c4-dpb2",":created_at":"2023-05-05T11:58:53.059Z","location_address":"","location_city":"","region_id":"CPL","address2":null,"building":null,"address1":"91 Queen Street","link":{"url":"http://web.archive.org/web/20240919224635/http://www.cumberlandpubliclibraries.ca/branches"},":updated_at":"2023-05-05T11:58:53.059Z","ext":null,":id":"row-e5aw~nfxw~29bg","loc_id":"CPL-BR03","type":"Branch","phone":"902-254-2046"}},{"type":"Feature","geometry":{"type":"Point","coordinates":[-64.057062,45.650625]},"properties":{"postal":"B0M 1X0","location_state":"","prov":"NS","city":"Springhill","location_zip":"","name":"Springhill Miners Memorial Library",":version":"rv-q2mg_cba2.4wut",":created_at":"2023-05-05T11:58:53.059Z","location_address":"","location_city":"","region_id":"CPL","address2":null,"building":"Springhill Miners Hall","address1":"85 Main Street","link":{"url":"http://web.archive.org/web/20240919224635/http://www.cumberlandpubliclibraries.ca/branches"},":updated_at":"2023-05-05T11:58:53.059Z","ext":null,":id":"row-85k3~uvyp~hhcs","loc_id":"CPL-BR04","type":"Branch","phone":"902-597-2211"}},{"type":"Feature","geometry":{"type":"Point","coordinates":[-64.775302,45.337283]},"properties":{"postal":"B0M 1A0","location_state":"","prov":"NS","city":"Advocate Harbour","location_zip":"","name":"Advocate Harbour Library",":version":"rv-idk7.888b~ttux",":created_at":"2023-05-05T11:58:53.059Z","location_address":"","location_city":"","region_id":"CPL","address2":null,"building":null,"address1":"93 Mills Road","link":{"url":"http://web.archive.org/web/20240919224635/http://www.cumberlandpubliclibraries.ca/branches"},":updated_at":"2023-05-05T11:58:53.059Z","ext":null,":id":"row-qgz3~c3fe~zetc","loc_id":"CPL-BR05","type":"Branch","phone":"902-392-2214"}},{"type":"Feature","geometry":{"type":"Point","coordinates":[-63.660854,45.84995]},"properties":{"postal":"B0K 1L0","location_state":"","prov":"NS","city":"Pugwash","location_zip":"","name":"Pugwash Library",":version":"rv-7wt6-a8w3.8tkd",":created_at":"2023-05-05T11:58:53.059Z","location_address":"","location_city":"","region_id":"CPL","address2":null,"building":null,"address1":"10182 Durham Street","link":{"url":"http://web.archive.org/web/20240919224635/http://www.cumberlandpubliclibraries.ca/branches"},":updated_at":"2023-05-05T11:58:53.059Z","ext":null,":id":"row-mq84~xrvw.4y9h","loc_id":"CPL-BR06","type":"Branch","phone":"902-243-3331"}},{"type":"Feature","geometry":{"type":"Point","coordinates":[-64.377897,45.689853]},"properties":{"postal":"B0L 1G0","location_state":"","prov":"NS","city":"River Hebert","location_zip":"","name":"River Hebert Miners Memorial Library",":version":"rv-vdga.rva3~m35g",":created_at":"2023-05-05T11:58:53.059Z","location_address":"","location_city":"","region_id":"CPL","address2":null,"building":null,"address1":"1808 Highway 242","link":{"url":"http://web.archive.org/web/20240919224635/http://www.cumberlandpubliclibraries.ca/branches"},":updated_at":"2023-05-05T11:58:53.059Z","ext":null,":id":"row-8ss4~mhqx_kdh6","loc_id":"CPL-BR07","type":"Branch","phone":"902-251-2324"}},{"type":"Feature","geometry":{"type":"Point","coordinates":[-64.20935,45.83468]},"properties":{"postal":"B4H 3Z2","location_state":"","prov":"NS","city":"Amherst","location_zip":"","name":"Cumberland Public Libraries",":version":"rv-9xnc_qkwr_swrq",":created_at":"2023-05-05T11:58:53.059Z","location_address":"","location_city":"","region_id":"CPL","address2":"PO Box 220","building":null,"address1":"21 Acadia Street","link":{"url":"http://web.archive.org/web/20240919224635/http://www.cumberlandpubliclibraries.ca"},":updated_at":"2023-05-05T11:58:53.059Z","ext":null,":id":"row-prrj-qyaz_9evs","loc_id":"CPL-HQ01","type":"HQ","phone":"902-667-2135"}},{"type":"Feature","geometry":{"type":"Point","coordinates":[-61.984607,45.140043]},"properties":{"postal":"B0J 3C0","location_state":"","prov":"NS","city":"Sherbrooke","location_zip":"","name":"Sherbrooke Library",":version":"rv-vzwr~n9hs-vifm",":created_at":"2023-05-05T11:58:53.059Z","location_address":"","location_city":"","region_id":"ECRL","address2":"PO Box 177","building":null,"address1":"11 Main Street","link":{"url":"http://web.archive.org/web/20240919224635/https://ecrl.ca/locations/sherbrooke-public-library/"},":updated_at":"2023-05-05T11:58:53.059Z","ext":null,":id":"row-ug6v.p3mw_3sib","loc_id":"ECRL-BR02","type":"Branch","phone":"902-522-2180"}},{"type":"Feature","geometry":{"type":"Point","coordinates":[-60.999206,45.334283]},"properties":{"postal":"B0H 1H0","location_state":"","prov":"NS","city":"Canso","location_zip":"","name":"Canso Library",":version":"rv-w9kd.nwpd_6y66",":created_at":"2023-05-05T11:58:53.059Z","location_address":"","location_city":"","region_id":"ECRL","address2":"PO Box 44","building":null,"address1":"169 Main Street","link":{"url":"http://web.archive.org/web/20240919224635/https://ecrl.ca/locations/canso-public-library/"},":updated_at":"2023-05-05T11:58:53.059Z","ext":null,":id":"row-wdbd-p2g8~wea3","loc_id":"ECRL-BR03","type":"Branch","phone":"902-366-2955"}},{"type":"Feature","geometry":{"type":"Point","coordinates":[-61.354965,45.617771]},"properties":{"postal":"B9A 2T9","location_state":"","prov":"NS","city":"Port Hawkesbury","location_zip":"","name":"Port Hawkesbury Library",":version":"rv-kdm7-vpej.3bsz",":created_at":"2023-05-05T11:58:53.059Z","location_address":"","location_city":"","region_id":"ECRL","address2":null,"building":null,"address1":"304 Pitt Street, Unit 1","link":{"url":"http://web.archive.org/web/20240919224635/https://ecrl.ca/locations/port-hawkesbury/"},":updated_at":"2023-05-05T11:58:53.059Z","ext":null,":id":"row-ijff-bcfw_u99k","loc_id":"ECRL-BR04","type":"Branch","phone":"902-625-2729"}},{"type":"Feature","geometry":{"type":"Point","coordinates":[-61.096842,46.333533]},"properties":{"postal":"B0E 2A0","location_state":"","prov":"NS","city":"Margaree Forks","location_zip":"","name":"Drs. Coady & Tompkins Memorial Library",":version":"rv-uds8-7c8k-augm",":created_at":"2023-05-05T11:58:53.059Z","location_address":"","location_city":"","region_id":"ECRL","address2":"General Delivery","building":null,"address1":"7972 Cabot Trail","link":{"url":"http://web.archive.org/web/20240919224635/https://ecrl.ca/locations/margaree-forks-coady-and-tompkins-memorial-public-library/"},":updated_at":"2023-05-05T11:58:53.059Z","ext":null,":id":"row-egxt-xnid-ywtx","loc_id":"ECRL-BR05","type":"Branch","phone":"902-248-2821"}},{"type":"Feature","geometry":{"type":"Point","coordinates":[-60.962102,45.513242]},"properties":{"postal":"B0E 2L0","location_state":"","prov":"NS","city":"Petit de Grat","location_zip":"","name":"Petit de Grat Library",":version":"rv-hj2u-daxb_pck3",":created_at":"2023-05-05T11:58:53.059Z","location_address":"","location_city":"","region_id":"ECRL","address2":"PO Box 151","building":null,"address1":"3435 Highway 206","link":{"url":"http://web.archive.org/web/20240919224635/https://ecrl.ca/locations/petit-de-grat-public-library/"},":updated_at":"2023-05-05T11:58:53.059Z","ext":null,":id":"row-55si.4imc.su4x","loc_id":"ECRL-BR06","type":"Branch","phone":"902-226-3534"}},{"type":"Feature","geometry":{"type":"Point","coordinates":[-61.498607,45.389558]},"properties":{"postal":"B0H 1N0","location_state":"","prov":"NS","city":"Guysborough","location_zip":"","name":"Cyril Ward Memorial Library",":version":"rv-m36k.pc38~ppfv",":created_at":"2023-05-05T11:58:53.059Z","location_address":"","location_city":"","region_id":"ECRL","address2":"PO Box 191","building":null,"address1":"27 Pleasant Street","link":{"url":"http://web.archive.org/web/20240919224635/https://ecrl.ca/locations/guysborough-cyril-ward-memorial-public-library/"},":updated_at":"2023-05-05T11:58:53.059Z","ext":null,":id":"row-7tkq~h5sa.36ax","loc_id":"ECRL-BR07","type":"Branch","phone":"902-533-3586"}},{"type":"Feature","geometry":{"type":"Point","coordinates":[-60.871758,45.657068]},"properties":{"postal":"B0E 3B0","location_state":"","prov":"NS","city":"St. Peter's","location_zip":"","name":"St. Peter's Library",":version":"rv-bec8.2hhe~99aw",":created_at":"2023-05-05T11:58:53.059Z","location_address":"","location_city":"","region_id":"ECRL","address2":"PO Box 160","building":null,"address1":"10036 Grenville Street, Unit C","link":{"url":"http://web.archive.org/web/20240919224635/https://ecrl.ca/locations/st-peters-public-library/"},":updated_at":"2023-05-05T11:58:53.059Z","ext":null,":id":"row-evhw.t4j9~iq4a","loc_id":"ECRL-BR09","type":"Branch","phone":"902-535-2465"}},{"type":"Feature","geometry":{"type":"Point","coordinates":[-61.408879,46.062245]},"properties":{"postal":"B0E 1X0","location_state":"","prov":"NS","city":"Mabou","location_zip":"","name":"Alexander Doyle Public Library",":version":"rv-82au_jac9-exvw",":created_at":"2023-05-05T11:58:53.059Z","location_address":"","location_city":"","region_id":"ECRL","address2":null,"building":"Dalbrae Academy","address1":"11156 Highway Rte 19","link":{"url":"http://web.archive.org/web/20240919224635/https://ecrl.ca/locations/mabou-alexander-doyle-public-library/"},":updated_at":"2023-05-05T11:58:53.059Z","ext":null,":id":"row-54qv~6up3-pvsd","loc_id":"ECRL-BR11","type":"Branch","phone":"902-945-2257"}},{"type":"Feature","geometry":{"type":"Point","coordinates":[-61.394663,45.608418]},"properties":{"postal":"B0E 2G0","location_state":"","prov":"NS","city":"Mulgrave","location_zip":"","name":"Eastern Counties Regional Library",":version":"rv-thws~x7c5~y58y",":created_at":"2023-05-05T11:58:53.059Z","location_address":"","location_city":"","region_id":"ECRL","address2":"PO Box 2500","building":null,"address1":"390 Murray Street","link":{"url":"http://web.archive.org/web/20240919224635/https://ecrl.ca/"},":updated_at":"2023-05-05T11:58:53.059Z","ext":null,":id":"row-wkk5.zxv2-r2pb","loc_id":"ECRL-HQ01","type":"HQ","phone":"902-747-2597"}},{"type":"Feature","geometry":{"type":"Point","coordinates":[-61.00958398668946,46.6341725357938]},"properties":{"postal":"B0E 2M0","location_state":"","prov":"NS","city":"Chéticamp","location_zip":"","name":"Chéticamp Public Library",":version":"rv-q5u5.zewa-jtxp",":created_at":"2023-05-05T11:58:53.059Z","location_address":"","location_city":"","region_id":"ECRL","address2":null,"building":null,"address1":"15359 Cabot Trail","link":{"url":"http://web.archive.org/web/20240919224635/https://ecrl.ca/locations/cheticamp-public-library/"},":updated_at":"2023-05-05T11:58:53.059Z","ext":null,":id":"row-edgx.qjmy_y5y8","loc_id":null,"type":"Branch","phone":"902-224-3728"}},{"type":"Feature","geometry":{"type":"Point","coordinates":[-63.56897086108055,44.665903926543926]},"properties":{"postal":"B2Y 4P8","location_state":"","prov":"NS","city":"Dartmouth","location_zip":"","name":"Alderney Gate Public Library (HPL)",":version":"rv-yt9m.pxvr_h6zn",":created_at":"2023-05-05T11:58:53.059Z","location_address":"","location_city":"","region_id":"HPL","address2":null,"building":null,"address1":"60 Alderney Dr","link":{"url":"http://web.archive.org/web/20240919224635/https://www.halifaxpubliclibraries.ca/locations/AG/?_ga=2.146939956.226138618.1655463819-1766470794.1616164191"},":updated_at":"2023-05-05T11:58:53.059Z","ext":null,":id":"row-26dq-xtw6~twkw","loc_id":"HPL-BR01","type":"Branch","phone":"(902) 490-5745"}},{"type":"Feature","geometry":{"type":"Point","coordinates":[-63.65715517786295,44.73452335065362]},"properties":{"postal":"B4A 3X6","location_state":"","prov":"NS","city":"Bedford","location_zip":"","name":"Bedford Public Library (HPL)",":version":"rv-jmdu.bxwa.4vg5",":created_at":"2023-05-05T11:58:53.059Z","location_address":"","location_city":"","region_id":"HPL","address2":null,"building":null,"address1":"15 Dartmouth Rd","link":{"url":"http://web.archive.org/web/20240919224635/https://www.halifaxpubliclibraries.ca/locations/BED/?_ga=2.243419270.226138618.1655463819-1766470794.1616164191"},":updated_at":"2023-05-05T11:58:53.059Z","ext":null,":id":"row-ir5h.ep6w_xyss","loc_id":"HPL-BR02","type":"Branch","phone":"(902) 490-5740"}},{"type":"Feature","geometry":{"type":"Point","coordinates":[-63.618583295308824,44.61016333108992]},"properties":{"postal":"B3R 1N9","location_state":"","prov":"NS","city":"Halifax","location_zip":"","name":"Captain William Spry Public Library (HPL)",":version":"rv-ivn3-ijse_kpsm",":created_at":"2023-05-05T11:58:53.059Z","location_address":"","location_city":"","region_id":"HPL","address2":null,"building":null,"address1":"16 Sussex St.","link":{"url":"http://web.archive.org/web/20240919224635/https://www.halifaxpubliclibraries.ca/locations/CWS/?_ga=2.148122676.226138618.1655463819-1766470794.1616164191"},":updated_at":"2023-05-05T11:58:53.059Z","ext":null,":id":"row-4vds.tphn~ffc9","loc_id":"HPL-BR03","type":"Branch","phone":"(902) 490-5244"}},{"type":"Feature","geometry":{"type":"Point","coordinates":[-63.57494703840039,44.644017729327324]},"properties":{"postal":"B3J 1E9","location_state":"","prov":"NS","city":"Halifax","location_zip":"","name":"Central Library (HPL)",":version":"rv-aeyu-5utk.aje5",":created_at":"2023-05-05T11:58:53.059Z","location_address":"","location_city":"","region_id":"HPL","address2":null,"building":null,"address1":"5440 Spring Garden Rd","link":{"url":"http://web.archive.org/web/20240919224635/https://www.halifaxpubliclibraries.ca/locations/SGA/?_ga=2.151801658.226138618.1655463819-1766470794.1616164191"},":updated_at":"2023-05-05T11:58:53.059Z","ext":null,":id":"row-7uuw.cjvs-rnug","loc_id":"HPL-BR04","type":"Branch","phone":"(902) 490-5700"}},{"type":"Feature","geometry":{"type":"Point","coordinates":[-63.48773978299684,44.68874491795458]},"properties":{"postal":"B2W 6C6","location_state":"","prov":"NS","city":"Cole Harbour","location_zip":"","name":"Cole Harbour Public Library (HPL)",":version":"rv-4k6i-crrq-w5y2",":created_at":"2023-05-05T11:58:53.059Z","location_address":"","location_city":"","region_id":"HPL","address2":null,"building":null,"address1":"51 Forest Hills Parkway","link":{"url":"http://web.archive.org/web/20240919224635/https://www.halifaxpubliclibraries.ca/locations/CH/?_ga=2.151801658.226138618.1655463819-1766470794.1616164191"},":updated_at":"2023-05-05T11:58:53.059Z","ext":null,":id":"row-akpb~bmuj.gd7f","loc_id":"HPL-BR05","type":"Branch","phone":"(902) 490-3820"}},{"type":"Feature","geometry":{"type":"Point","coordinates":[-63.58890605042258,44.685742506077574]},"properties":{"postal":"B3A 0C2","location_state":"","prov":"NS","city":"Dartmouth","location_zip":"","name":"Dartmouth North Public Library (HPL)",":version":"rv-3p3i_cig9.etms",":created_at":"2023-05-05T11:58:53.059Z","location_address":"","location_city":"","region_id":"HPL","address2":null,"building":null,"address1":"105 Highfield Park Dr.","link":{"url":"http://web.archive.org/web/20240919224635/https://www.halifaxpubliclibraries.ca/locations/DN/?_ga=2.176376870.226138618.1655463819-1766470794.1616164191"},":updated_at":"2023-05-05T11:58:53.059Z","ext":null,":id":"row-e7ct~mzmy-75az","loc_id":"HPL-BR06","type":"Branch","phone":"(902) 490-5840"}},{"type":"Feature","geometry":{"type":"Point","coordinates":[-63.58576141793937,44.65533631661356]},"properties":{"postal":"B3K 3B6","location_state":"","prov":"NS","city":"Halifax","location_zip":"","name":"Halifax North Memorial Public Library (HPL)",":version":"rv-wvuh-hkgt_tr5r",":created_at":"2023-05-05T11:58:53.059Z","location_address":"","location_city":"","region_id":"HPL","address2":null,"building":null,"address1":"2285 Gottingen St","link":{"url":"http://web.archive.org/web/20240919224635/https://www.halifaxpubliclibraries.ca/locations/N/?_ga=2.172058400.226138618.1655463819-1766470794.1616164191"},":updated_at":"2023-05-05T11:58:53.059Z","ext":null,":id":"row-763j_39f8.awub","loc_id":"HPL-BR07","type":"Branch","phone":"(902) 490-5811"}},{"type":"Feature","geometry":{"type":"Point","coordinates":[-64.05837655810896,44.6554778203664]},"properties":{"postal":"B0J 1T0","location_state":"","prov":"NS","city":"Hubbards","location_zip":"","name":"JD Shatford Memorial Public Library (HPL)",":version":"rv-grdz.zr7d.9yfn",":created_at":"2023-05-05T11:58:53.059Z","location_address":"","location_city":"","region_id":"HPL","address2":null,"building":null,"address1":"10353 St Margaret Bay Rd","link":{"url":"http://web.archive.org/web/20240919224635/https://www.halifaxpubliclibraries.ca/locations/HU/?_ga=2.176319398.226138618.1655463819-1766470794.1616164191"},":updated_at":"2023-05-05T11:58:53.059Z","ext":null,":id":"row-u9cb.axij~2q4q","loc_id":"HPL-BR08","type":"Branch","phone":"(902) 857-9176"}},{"type":"Feature","geometry":{"type":"Point","coordinates":[-63.667600137000214,44.66182340937044]},"properties":{"postal":"B3S 0A3","location_state":"","prov":"NS","city":"Halifax","location_zip":"","name":"Keshen Goodman Public Library (HPL)",":version":"rv-xagn-ibk3_3pe9",":created_at":"2023-05-05T11:58:53.059Z","location_address":"","location_city":"","region_id":"HPL","address2":null,"building":null,"address1":"330 Lacewood Dr","link":{"url":"http://web.archive.org/web/20240919224635/https://www.halifaxpubliclibraries.ca/locations/KG/?_ga=2.247031431.226138618.1655463819-1766470794.1616164191"},":updated_at":"2023-05-05T11:58:53.059Z","ext":null,":id":"row-dp64~uswm~a2w8","loc_id":"HPL-BR09","type":"Branch","phone":"(902) 490-5738"}},{"type":"Feature","geometry":{"type":"Point","coordinates":[-63.1506670089829,44.80493970375284]},"properties":{"postal":"B0J 2L0","location_state":"","prov":"NS","city":"Musquodoboit Harbour","location_zip":"","name":"Musquodoboit Harbour Public Library (HPL)",":version":"rv-6g2r~fnzi~nz8n",":created_at":"2023-05-05T11:58:53.059Z","location_address":"","location_city":"","region_id":"HPL","address2":null,"building":null,"address1":"7900 Trunk 7","link":{"url":"http://web.archive.org/web/20240919224635/https://www.halifaxpubliclibraries.ca/locations/MH/?_ga=2.138494768.226138618.1655463819-1766470794.1616164191"},":updated_at":"2023-05-05T11:58:53.059Z","ext":null,":id":"row-vr85_qbhm.pe76","loc_id":"HPL-BR10","type":"Branch","phone":"(902) 889-2227"}},{"type":"Feature","geometry":{"type":"Point","coordinates":[-63.14716909329189,45.05899844085078]},"properties":{"postal":"B0N 1X0","location_state":"","prov":"NS","city":"Middle Musquodoboit","location_zip":"","name":"Musquodoboit Valley Library Office (HPL)",":version":"rv-ru2e~9rwf~5gkb",":created_at":"2023-05-05T11:58:53.059Z","location_address":"","location_city":"","region_id":"HPL","address2":null,"building":null,"address1":"12280 NS-224, Suite 1","link":{"url":"http://web.archive.org/web/20240919224635/https://www.halifaxpubliclibraries.ca/locations/ML1/?_ga=2.45759655.226138618.1655463819-1766470794.1616164191"},":updated_at":"2023-05-05T11:58:53.059Z","ext":null,":id":"row-b4ma.xxup.tqdw","loc_id":"HPL-BR11","type":"Branch","phone":"(902) 292-8352"}},{"type":"Feature","geometry":{"type":"Point","coordinates":[-63.43574984180611,44.72254894653991]},"properties":{"postal":"B2Z 1M2","location_state":"","prov":"NS","city":"East Preston","location_zip":"","name":"Preston Township Library Office (HPL)",":version":"rv-f25r.xmv5-e8ha",":created_at":"2023-05-05T11:58:53.059Z","location_address":"","location_city":"","region_id":"HPL","address2":null,"building":null,"address1":"1900  Trunk 7","link":{"url":"http://web.archive.org/web/20240919224635/https://www.halifaxpubliclibraries.ca/locations/PH/?_ga=2.214568724.226138618.1655463819-1766470794.1616164191"},":updated_at":"2023-05-05T11:58:53.059Z","ext":null,":id":"row-bpvp_mthn_g528","loc_id":"HPL-BR12","type":"Branch","phone":"(902) 490-1549"}},{"type":"Feature","geometry":{"type":"Point","coordinates":[-63.68702425476099,44.77401680421872]},"properties":{"postal":"B4C 2S4","location_state":"","prov":"NS","city":"Lower Sackville","location_zip":"","name":"Sackville Public Library (HPL)",":version":"rv-294b-k7u4-82yr",":created_at":"2023-05-05T11:58:53.059Z","location_address":"","location_city":"","region_id":"HPL","address2":null,"building":null,"address1":"636 Sackville Dr","link":{"url":"http://web.archive.org/web/20240919224635/https://www.halifaxpubliclibraries.ca/locations/SA/?_ga=2.214625428.226138618.1655463819-1766470794.1616164191"},":updated_at":"2023-05-05T11:58:53.059Z","ext":null,":id":"row-ctrp.knwr.wbtf","loc_id":"HPL-BR13","type":"Branch","phone":"(902) 865-8653"}},{"type":"Feature","geometry":{"type":"Point","coordinates":[-62.528251743281615,44.94943297133229]},"properties":{"postal":"B0J 3B0","location_state":"","prov":"NS","city":"Sheet Harbour","location_zip":"","name":"Sheet Harbour Public Library (HPL)",":version":"rv-basc-cmap_9j7w",":created_at":"2023-05-05T11:58:53.059Z","location_address":"","location_city":"","region_id":"HPL","address2":null,"building":null,"address1":"22756 Highway 7","link":{"url":"http://web.archive.org/web/20240919224635/https://www.halifaxpubliclibraries.ca/locations/SH/?_ga=2.145836087.226138618.1655463819-1766470794.1616164191"},":updated_at":"2023-05-05T11:58:53.059Z","ext":null,":id":"row-vyge.gmhr~2rzd","loc_id":"HPL-BR14","type":"Branch","phone":"(902) 885-2391"}},{"type":"Feature","geometry":{"type":"Point","coordinates":[-63.85629059901587,44.711343908770154]},"properties":{"postal":"B3Z 4R2","location_state":"","prov":"NS","city":"Upper Tantallon","location_zip":"","name":"Tantallon Public Library (HPL)",":version":"rv-3rda_erzk~f2hc",":created_at":"2023-05-05T11:58:53.059Z","location_address":"","location_city":"","region_id":"HPL","address2":null,"building":null,"address1":"3646 Hammonds Plains Rd","link":{"url":"http://web.archive.org/web/20240919224635/https://www.halifaxpubliclibraries.ca/locations/TA/?_ga=2.143796278.226138618.1655463819-1766470794.1616164191"},":updated_at":"2023-05-05T11:58:53.059Z","ext":null,":id":"row-exn3.5w5q-nzyy","loc_id":"HPL-BR15","type":"Branch","phone":"(902) 826-3330"}},{"type":"Feature","geometry":{"type":"Point","coordinates":[-63.52261345577749,44.6721450277593]},"properties":{"postal":"B2W 0J1","location_state":"","prov":"NS","city":"Dartmouth","location_zip":"","name":"Woodlawn Public Library (HPL)",":version":"rv-r8e5_faqp.ydgz",":created_at":"2023-05-05T11:58:53.059Z","location_address":"","location_city":"","region_id":"HPL","address2":null,"building":null,"address1":"31 Eisener Blvd.","link":{"url":"http://web.archive.org/web/20240919224635/https://www.halifaxpubliclibraries.ca/locations/W/?_ga=2.147596340.226138618.1655463819-1766470794.1616164191"},":updated_at":"2023-05-05T11:58:53.059Z","ext":null,":id":"row-juby.tfgm-rsk4","loc_id":"HPL-BR16","type":"Branch","phone":"(902) 490-2636"}},{"type":"Feature","geometry":{"type":"Point","coordinates":[-63.56897086108055,44.665903926543926]},"properties":{"postal":"B2Y 4P8","location_state":"","prov":"NS","city":"Dartmouth","location_zip":"","name":"Halifax Public Libraries",":version":"rv-km2v.xfj5~t56u",":created_at":"2023-05-05T11:58:53.059Z","location_address":"","location_city":"","region_id":"HPL","address2":null,"building":null,"address1":"60 Alderney Dr","link":{"url":"http://web.archive.org/web/20240919224635/https://www.halifaxpubliclibraries.ca/?_ga=2.143797174.226138618.1655463819-1766470794.1616164191"},":updated_at":"2023-05-05T11:58:53.059Z","ext":null,":id":"row-gxhg-46rm.94rz","loc_id":"HPL-HQ01","type":"HQ","phone":"(902) 490-5744"}},{"type":"Feature","geometry":{"type":"Point","coordinates":[-62.643562,45.58777]},"properties":{"postal":"B2H 5E3","location_state":"","prov":"NS","city":"New Glasgow","location_zip":"","name":"New Glasgow Public Library",":version":"rv-6aux-dyp8-cmcb",":created_at":"2023-05-05T11:58:53.059Z","location_address":"","location_city":"","region_id":"PARL","address2":"PO Box 276","building":null,"address1":"182 Dalhousie Street","link":{"url":"http://web.archive.org/web/20240919224635/http://www.parl.ns.ca/locations/newglasgow.php"},":updated_at":"2023-05-05T11:58:53.059Z","ext":null,":id":"row-ba3r.7au6_pxx9","loc_id":"PARL-BR01","type":"Branch","phone":"902-752-8233"}},{"type":"Feature","geometry":{"type":"Point","coordinates":[-61.99208,45.622488]},"properties":{"postal":"B2G 2C3","location_state":"","prov":"NS","city":"Antigonish","location_zip":"","name":"Antigonish Town & County Public Library",":version":"rv-t6en~krmv.q39r",":created_at":"2023-05-05T11:58:53.059Z","location_address":"","location_city":"","region_id":"PARL","address2":null,"building":null,"address1":"283 Main Street","link":{"url":"http://web.archive.org/web/20240919224635/http://www.parl.ns.ca/locations/antigonish.php"},":updated_at":"2023-05-05T11:58:53.059Z","ext":null,":id":"row-2kb5-j924.uz5e","loc_id":"PARL-BR02","type":"Branch","phone":"902-863-4276"}},{"type":"Feature","geometry":{"type":"Point","coordinates":[-62.65988,45.559237]},"properties":{"postal":"B0K 1S0","location_state":"","prov":"NS","city":"Stellarton","location_zip":"","name":"Stellarton Public Library",":version":"rv-irtq_2ubn.t85c",":created_at":"2023-05-05T11:58:53.059Z","location_address":"","location_city":"","region_id":"PARL","address2":"PO Box 1372","building":null,"address1":"248 Foord Street","link":{"url":"http://web.archive.org/web/20240919224635/http://www.parl.ns.ca/location/stellarton.php"},":updated_at":"2023-05-05T11:58:53.059Z","ext":null,":id":"row-xqea~375k-jjn9","loc_id":"PARL-BR03","type":"Branch","phone":"902-755-1638"}},{"type":"Feature","geometry":{"type":"Point","coordinates":[-62.710442,45.676061]},"properties":{"postal":"B0K 1H0","location_state":"","prov":"NS","city":"Pictou","location_zip":"","name":"Pictou Public Library",":version":"rv-e28u-h3i5.jv8m",":created_at":"2023-05-05T11:58:53.059Z","location_address":"","location_city":"","region_id":"PARL","address2":"PO Box 622","building":null,"address1":"40 Water Street","link":{"url":"http://web.archive.org/web/20240919224635/http://www.parl.ns.ca/locations/pictou.php"},":updated_at":"2023-05-05T11:58:53.059Z","ext":null,":id":"row-3uzb~egs9-97eu","loc_id":"PARL-BR04","type":"Branch","phone":"902-485-5021"}},{"type":"Feature","geometry":null,"properties":{"postal":"B0K 1N0","location_state":null,"prov":"NS","city":"River John","location_zip":null,"name":"River John Public Library",":version":"rv-x8u8_sjjd-pupt",":created_at":"2023-05-05T11:58:53.059Z","location_address":null,"location_city":null,"region_id":"PARL","address2":"PO Box 104","building":null,"address1":"2725 West Branch Road","link":{"url":"http://web.archive.org/web/20240919224635/http://www.parl.ns.ca/locations/riverjohn.php"},":updated_at":"2023-05-05T11:58:53.059Z","ext":null,":id":"row-hv9q.qqqs.pwhy","loc_id":"PARL-BR05","type":"Branch","phone":"902-351-2599"}},{"type":"Feature","geometry":null,"properties":{"postal":"B0K 1X0","location_state":null,"prov":"NS","city":"Trenton","location_zip":null,"name":"Trenton Public Library",":version":"rv-afu8~9apx_c497",":created_at":"2023-05-05T11:58:53.059Z","location_address":null,"location_city":null,"region_id":"PARL","address2":"PO Box 612","building":null,"address1":"Main Street","link":{"url":"http://web.archive.org/web/20240919224635/http://www.parl.ns.ca/locations/trenton.php"},":updated_at":"2023-05-05T11:58:53.059Z","ext":null,":id":"row-nwmu~5ixm_uekh","loc_id":"PARL-BR06","type":"Branch","phone":"902-752-5181"}},{"type":"Feature","geometry":{"type":"Point","coordinates":[-62.712302,45.553287]},"properties":{"postal":"B0K 2A0","location_state":"","prov":"NS","city":"Westville","location_zip":"","name":"Westville Public Library",":version":"rv-zttz_wa3a~ztis",":created_at":"2023-05-05T11:58:53.059Z","location_address":"","location_city":"","region_id":"PARL","address2":"RR 3","building":null,"address1":"2042 Queen Street, Unit 3","link":{"url":"http://web.archive.org/web/20240919224635/http://www.parl.ns.ca/locations/westville.php"},":updated_at":"2023-05-05T11:58:53.059Z","ext":null,":id":"row-627h-4dud~kvqc","loc_id":"PARL-BR07","type":"Branch","phone":"902-396-5022"}},{"type":"Feature","geometry":{"type":"Point","coordinates":[-62.643562,45.58777]},"properties":{"postal":"B2H 5E3","location_state":"","prov":"NS","city":"New Glasgow","location_zip":"","name":"Pictou-Antigonish Regional Library",":version":"rv-32v7.xcq6~58wu",":created_at":"2023-05-05T11:58:53.059Z","location_address":"","location_city":"","region_id":"PARL","address2":"PO Box 276","building":null,"address1":"182 Dalhousie Street","link":{"url":"http://web.archive.org/web/20240919224635/http://www.parl.ns.ca"},":updated_at":"2023-05-05T11:58:53.059Z","ext":null,":id":"row-jxff-cv2d-9mca","loc_id":"PARL-HQ01","type":"HQ","phone":"902-755-6031"}},{"type":"Feature","geometry":{"type":"Point","coordinates":[-64.536058,44.386007]},"properties":{"postal":"B4V 9B3","location_state":"","prov":"NS","city":"Bridgewater","location_zip":"","name":"Margaret Hennigar Public Library",":version":"rv-jyek~pmyn_r4mw",":created_at":"2023-05-05T11:58:53.059Z","location_address":"","location_city":"","region_id":"SSPL","address2":null,"building":"Lunenburg County Lifestyle Centre","address1":"135 North Park Street, Unit B","link":{"url":"http://web.archive.org/web/20240919224635/http://www.southshorepubliclibraries.ca/locations-hours-contact/"},":updated_at":"2023-05-05T11:58:53.059Z","ext":null,":id":"row-6qrb-swtf_cevm","loc_id":"SSPL-BR01","type":"Branch","phone":"902-543-9222"}},{"type":"Feature","geometry":{"type":"Point","coordinates":[-64.313938,44.377488]},"properties":{"postal":"B0J 2C0","location_state":"","prov":"NS","city":"Lunenburg","location_zip":"","name":"Lunenburg Library",":version":"rv-spm2~uvi6_yxau",":created_at":"2023-05-05T11:58:53.059Z","location_address":"","location_city":"","region_id":"SSPL","address2":null,"building":"Lunenburg Academy","address1":"97 Kaulbach Street","link":{"url":"http://web.archive.org/web/20240919224635/http://www.southshorepubliclibraries.ca/locations-hours-contact/"},":updated_at":"2023-05-05T11:58:53.059Z","ext":null,":id":"row-8h6v-iwyn-szn5","loc_id":"SSPL-BR02","type":"Branch","phone":"902-634-8008"}},{"type":"Feature","geometry":{"type":"Point","coordinates":[-64.71425,44.036312]},"properties":{"postal":"B0T 1K0","location_state":"","prov":"NS","city":"Liverpool","location_zip":"","name":"Thomas H. Raddall Library",":version":"rv-rduv_vyrb-6yxc",":created_at":"2023-05-05T11:58:53.059Z","location_address":"","location_city":"","region_id":"SSPL","address2":"PO Box 9","building":null,"address1":"145 Old Bridge Street","link":{"url":"http://web.archive.org/web/20240919224635/http://www.southshorepubliclibraries.ca/locations-hours-contact/"},":updated_at":"2023-05-05T11:58:53.059Z","ext":null,":id":"row-a5xg-9peb_s4dd","loc_id":"SSPL-BR03","type":"Branch","phone":"902-354-5270"}},{"type":"Feature","geometry":{"type":"Point","coordinates":[-64.841687,44.272282]},"properties":{"postal":"B0T 1E0","location_state":"","prov":"NS","city":"Greenfield","location_zip":"","name":"Alean Freeman Library",":version":"rv-w8j9.pri6-kch3",":created_at":"2023-05-05T11:58:53.059Z","location_address":"","location_city":"","region_id":"SSPL","address2":null,"building":"Greenfield Elementary School","address1":"5060 Highway 210","link":{"url":"http://web.archive.org/web/20240919224635/http://www.southshorepubliclibraries.ca/locations-hours-contact/"},":updated_at":"2023-05-05T11:58:53.059Z","ext":null,":id":"row-t5mp-wt58-m3ec","loc_id":"SSPL-BR04","type":"Branch","phone":"902-685-5400"}},{"type":"Feature","geometry":{"type":"Point","coordinates":[-64.536058,44.386007]},"properties":{"postal":"B4V 9B3","location_state":"","prov":"NS","city":"Bridgewater","location_zip":"","name":"South Shore Public Libraries",":version":"rv-fwv9-znxb.jxzd",":created_at":"2023-05-05T11:58:53.059Z","location_address":"","location_city":"","region_id":"SSPL","address2":null,"building":null,"address1":"135 North Park Street, Unit B","link":{"url":"http://web.archive.org/web/20240919224635/http://www.southshorepubliclibraries.ca"},":updated_at":"2023-05-05T11:58:53.059Z","ext":null,":id":"row-u5au-r9w3.rvi9","loc_id":"SSPL-HQ01","type":"HQ","phone":"902-543-2548"}},{"type":"Feature","geometry":{"type":"Point","coordinates":[-66.119533,43.838727]},"properties":{"postal":"B5A 1G3","location_state":"","prov":"NS","city":"Yarmouth","location_zip":"","name":"Izaak Walton Killam Memorial Library",":version":"rv-rtcd_sxgk.nc8v",":created_at":"2023-05-05T11:58:53.059Z","location_address":"","location_city":"","region_id":"WCRL","address2":null,"building":null,"address1":"405 Main Street","link":{"url":"http://web.archive.org/web/20240919224635/http://westerncounties.ca/branch-location-information/#rmth76"},":updated_at":"2023-05-05T11:58:53.059Z","ext":null,":id":"row-ayna.hcv4-eizq","loc_id":"WCRL-BR01","type":"Branch","phone":"902-742-5040"}},{"type":"Feature","geometry":{"type":"Point","coordinates":[-65.762754,44.616787]},"properties":{"postal":"B0V 1A0","location_state":"","prov":"NS","city":"Digby","location_zip":"","name":"Isaiah W. Wilson Memorial Library",":version":"rv-xqjs~g4bu.jxwn",":created_at":"2023-05-05T11:58:53.059Z","location_address":"","location_city":"","region_id":"WCRL","address2":"PO Box 730","building":"Provincial Building","address1":"84 Warwick Street","link":{"url":"http://web.archive.org/web/20240919224635/http://westerncounties.ca/branch-location-information/#1456603536554-9394f875-7631"},":updated_at":"2023-05-05T11:58:53.059Z","ext":null,":id":"row-pupw~ic72~aiax","loc_id":"WCRL-BR02","type":"Branch","phone":"902-245-2163"}},{"type":"Feature","geometry":{"type":"Point","coordinates":[-65.328531,43.771427]},"properties":{"postal":"B0T 1W0","location_state":"","prov":"NS","city":"Shelburne","location_zip":"","name":"McKay Memorial Library",":version":"rv-f7bh-k5v9.2k9c",":created_at":"2023-05-05T11:58:53.059Z","location_address":"","location_city":"","region_id":"WCRL","address2":"PO Box 158","building":null,"address1":"17 Glasgow Street","link":{"url":"http://web.archive.org/web/20240919224635/http://westerncounties.ca/branch-location-information/#shel76"},":updated_at":"2023-05-05T11:58:53.059Z","ext":null,":id":"row-qcj9-25es-a6ea","loc_id":"WCRL-BR03","type":"Branch","phone":"902-875-3615"}},{"type":"Feature","geometry":{"type":"Point","coordinates":[-65.113928,43.700275]},"properties":{"postal":"B0T 1L0","location_state":"","prov":"NS","city":"Lockeport","location_zip":"","name":"Lillian Benham Library",":version":"rv-ziy4_ws87.k3vu",":created_at":"2023-05-05T11:58:53.059Z","location_address":"","location_city":"","region_id":"WCRL","address2":"PO Box 265","building":null,"address1":"35 North Street","link":{"url":"http://web.archive.org/web/20240919224635/http://westerncounties.ca/branch-location-information/#lckprt"},":updated_at":"2023-05-05T11:58:53.059Z","ext":null,":id":"row-yr47~dwdw-hh6s","loc_id":"WCRL-BR04","type":"Branch","phone":"902-656-2817"}},{"type":"Feature","geometry":{"type":"Point","coordinates":[-65.637684,43.447579]},"properties":{"postal":"B0W 1P0","location_state":"","prov":"NS","city":"Clark's Harbour","location_zip":"","name":"Clark's Harbour Library",":version":"rv-vzk7-4wmq-gfey",":created_at":"2023-05-05T11:58:53.059Z","location_address":"","location_city":"","region_id":"WCRL","address2":"PO Box 189","building":"Clark's Harbour Civic Centre","address1":"2648 Main Street","link":{"url":"http://web.archive.org/web/20240919224635/http://westerncounties.ca/branch-location-information/#clkshrbr"},":updated_at":"2023-05-05T11:58:53.059Z","ext":null,":id":"row-s4d4.hpzm-8xfi","loc_id":"WCRL-BR05","type":"Branch","phone":"902-745-2885"}},{"type":"Feature","geometry":{"type":"Point","coordinates":[-65.785857,43.701463]},"properties":{"postal":"B0W 2W0","location_state":"","prov":"NS","city":"Pubnico","location_zip":"","name":"Pubnico Library",":version":"rv-av6u~r23e-i3n6",":created_at":"2023-05-05T11:58:53.059Z","location_address":"","location_city":"","region_id":"WCRL","address2":"PO Box 22","building":"Former United Baptist Church","address1":"35 Highway 335","link":{"url":"http://web.archive.org/web/20240919224635/http://westerncounties.ca/branch-location-information/#pubn76"},":updated_at":"2023-05-05T11:58:53.059Z","ext":null,":id":"row-9zdj_57g7.7kp3","loc_id":"WCRL-BR06","type":"Branch","phone":"902-762-2204"}},{"type":"Feature","geometry":null,"properties":{"postal":"B0W 2J0","location_state":null,"prov":"NS","city":"Meteghan","location_zip":null,"name":"Senator Ambroise H. Comeau Memorial Library",":version":"rv-9m8e~xv46~qvtg",":created_at":"2023-05-05T11:58:53.059Z","location_address":null,"location_city":null,"region_id":"WCRL","address2":"PO Box 265","building":null,"address1":"29 Chemin Hache","link":{"url":"http://web.archive.org/web/20240919224635/http://westerncounties.ca/branch-location-information/#metcl"},":updated_at":"2023-05-05T11:58:53.059Z","ext":null,":id":"row-6k23_2mm5_unkk","loc_id":"WCRL-BR07","type":"Branch","phone":"902-645-3350"}},{"type":"Feature","geometry":{"type":"Point","coordinates":[-65.611092,43.525189]},"properties":{"postal":"B0W 1G0","location_state":"","prov":"NS","city":"Barrington Passage","location_zip":"","name":"Barrington Municipal Library",":version":"rv-a24c~s7kg-hasd",":created_at":"2023-05-05T11:58:53.059Z","location_address":"","location_city":"","region_id":"WCRL","address2":"PO Box 310","building":"Community Economic Development Centre","address1":"3588 Highway 3","link":{"url":"http://web.archive.org/web/20240919224635/http://westerncounties.ca/branch-location-information/#bpl"},":updated_at":"2023-05-05T11:58:53.059Z","ext":null,":id":"row-ynhr~9gu6-zfc6","loc_id":"WCRL-BR08","type":"Branch","phone":"902-637-3348"}},{"type":"Feature","geometry":{"type":"Point","coordinates":[-65.99623,44.409003]},"properties":{"postal":"B0W 3T0","location_state":"","prov":"NS","city":"Weymouth","location_zip":"","name":"Weymouth Waterfront Library",":version":"rv-mcvt.xuwe.c3mn",":created_at":"2023-05-05T11:58:53.059Z","location_address":"","location_city":"","region_id":"WCRL","address2":"PO Box 340","building":null,"address1":"4577 Highway 1","link":{"url":"http://web.archive.org/web/20240919224635/http://westerncounties.ca/branch-location-information/#WWL-76"},":updated_at":"2023-05-05T11:58:53.059Z","ext":null,":id":"row-vq6u.8xnn.xq67","loc_id":"WCRL-BR09","type":"Branch","phone":"902-837-4596"}},{"type":"Feature","geometry":{"type":"Point","coordinates":[-66.352748,44.261852]},"properties":{"postal":"B0V 1H0","location_state":"","prov":"NS","city":"Westport","location_zip":"","name":"Westport Library",":version":"rv-5qws~qku2.nzpt",":created_at":"2023-05-05T11:58:53.059Z","location_address":"","location_city":"","region_id":"WCRL","address2":"PO Box 1194","building":null,"address1":"17 Second Street","link":{"url":"http://web.archive.org/web/20240919224635/http://westerncounties.ca/branch-location-information/#wpl-76"},":updated_at":"2023-05-05T11:58:53.059Z","ext":null,":id":"row-9jcg~4mem_shk5","loc_id":"WCRL-BR10","type":"Branch","phone":"902-839-2955"}},{"type":"Feature","geometry":{"type":"Point","coordinates":[-66.119533,43.838727]},"properties":{"postal":"B5A 1G3","location_state":"","prov":"NS","city":"Yarmouth","location_zip":"","name":"Western Counties Regional Library",":version":"rv-xhhd.yi39.nc2c",":created_at":"2023-05-05T11:58:53.059Z","location_address":"","location_city":"","region_id":"WCRL","address2":null,"building":null,"address1":"405 Main Street","link":{"url":"http://web.archive.org/web/20240919224635/http://www.westerncounties.ca"},":updated_at":"2023-05-05T11:58:53.059Z","ext":null,":id":"row-vap2.zt7r_azun","loc_id":"WCRL-HQ01","type":"HQ","phone":"902-742-2486"}}], "crs" : { "type": "name", "properties": { "name": "urn:ogc:def:crs:OGC:1.3:CRS84" } } }